{
  "type": "FeatureCollection",
  "features": [
    {
      "type": "Feature",
      "properties": {
        "norad_id": 66835,
        "name": "STARLINK-35890",
        "group": "last-30-days",
        "lat": 55.31799004450987,
        "lon": -45.53538503878234,
        "alt_km": 405.376996719021,
        "timestamp": "2025-12-24T11:32:58.719442+00:00",
        "meta_object_name": "STARLINK-35890",
        "meta_object_id": "2025-280Q",
        "meta_epoch": "2025-12-24T01:45:41.160384",
        "meta_mean_motion": 15.52535285,
        "meta_eccentricity": 0.00034,
        "meta_inclination": 70.0006,
        "meta_ra_of_asc_node": 167.3406,
        "meta_arg_of_pericenter": 269.3113,
        "meta_mean_anomaly": 90.7684,
        "meta_ephemeris_type": 0,
        "meta_classification_type": "U",
        "meta_norad_cat_id": 66835,
        "meta_element_set_no": 999,
        "meta_rev_at_epoch": 469,
        "meta_bstar": 0.00059596,
        "meta_mean_motion_dot": 0.00036688,
        "meta_mean_motion_ddot": 0,
        "tle_line1": "1 66835U 25280Q   25358.07339306  .00036688  00000+0  59596-3 0  9996",
        "tle_line2": "2 66835  70.0006 167.3406 0003400 269.3113  90.7684 15.52535285  4696"
      },
      "geometry": {
        "type": "Point",
        "coordinates": [
          -45.53538503878234,
          55.31799004450987
        ]
      }
    },
    {
      "type": "Feature",
      "properties": {
        "norad_id": 66836,
        "name": "STARLINK-35838",
        "group": "last-30-days",
        "lat": 53.74823556556522,
        "lon": -43.56037582737752,
        "alt_km": 405.43129899060114,
        "timestamp": "2025-12-24T11:32:58.719455+00:00",
        "meta_object_name": "STARLINK-35838",
        "meta_object_id": "2025-280R",
        "meta_epoch": "2025-12-24T03:17:58.588224",
        "meta_mean_motion": 15.52549794,
        "meta_eccentricity": 0.0003233,
        "meta_inclination": 70.0007,
        "meta_ra_of_asc_node": 167.1626,
        "meta_arg_of_pericenter": 276.7004,
        "meta_mean_anomaly": 83.3815,
        "meta_ephemeris_type": 0,
        "meta_classification_type": "U",
        "meta_norad_cat_id": 66836,
        "meta_element_set_no": 999,
        "meta_rev_at_epoch": 470,
        "meta_bstar": 0.0016146,
        "meta_mean_motion_dot": 0.00100539,
        "meta_mean_motion_ddot": 0,
        "tle_line1": "1 66836U 25280R   25358.13748366  .00100539  00000+0  16146-2 0  9994",
        "tle_line2": "2 66836  70.0007 167.1626 0003233 276.7004  83.3815 15.52549794  4701"
      },
      "geometry": {
        "type": "Point",
        "coordinates": [
          -43.56037582737752,
          53.74823556556522
        ]
      }
    },
    {
      "type": "Feature",
      "properties": {
        "norad_id": 66837,
        "name": "STARLINK-35729",
        "group": "last-30-days",
        "lat": 52.139658273313046,
        "lon": -41.71890531312605,
        "alt_km": 405.3937466224288,
        "timestamp": "2025-12-24T11:32:58.719465+00:00",
        "meta_object_name": "STARLINK-35729",
        "meta_object_id": "2025-280S",
        "meta_epoch": "2025-12-24T01:44:41.896032",
        "meta_mean_motion": 15.5255628,
        "meta_eccentricity": 0.0003317,
        "meta_inclination": 70.0008,
        "meta_ra_of_asc_node": 167.3382,
        "meta_arg_of_pericenter": 265.4757,
        "meta_mean_anomaly": 94.6051,
        "meta_ephemeris_type": 0,
        "meta_classification_type": "U",
        "meta_norad_cat_id": 66837,
        "meta_element_set_no": 999,
        "meta_rev_at_epoch": 469,
        "meta_bstar": 0.001448,
        "meta_mean_motion_dot": 0.00090048,
        "meta_mean_motion_ddot": 0,
        "tle_line1": "1 66837U 25280S   25358.07270713  .00090048  00000+0  14480-2 0  9996",
        "tle_line2": "2 66837  70.0008 167.3382 0003317 265.4757  94.6051 15.52556280  4690"
      },
      "geometry": {
        "type": "Point",
        "coordinates": [
          -41.71890531312605,
          52.139658273313046
        ]
      }
    },
    {
      "type": "Feature",
      "properties": {
        "norad_id": 66838,
        "name": "STARLINK-35886",
        "group": "last-30-days",
        "lat": 48.97693722049788,
        "lon": -38.53449174003082,
        "alt_km": 406.0204463614473,
        "timestamp": "2025-12-24T11:32:58.719476+00:00",
        "meta_object_name": "STARLINK-35886",
        "meta_object_id": "2025-280T",
        "meta_epoch": "2025-12-24T03:16:30.082656",
        "meta_mean_motion": 15.52540822,
        "meta_eccentricity": 0.0003469,
        "meta_inclination": 70.0009,
        "meta_ra_of_asc_node": 167.1582,
        "meta_arg_of_pericenter": 270.9342,
        "meta_mean_anomaly": 89.1448,
        "meta_ephemeris_type": 0,
        "meta_classification_type": "U",
        "meta_norad_cat_id": 66838,
        "meta_element_set_no": 999,
        "meta_rev_at_epoch": 470,
        "meta_bstar": 0.0015693,
        "meta_mean_motion_dot": 0.00097651,
        "meta_mean_motion_ddot": 0,
        "tle_line1": "1 66838U 25280T   25358.13645929  .00097651  00000+0  15693-2 0  9993",
        "tle_line2": "2 66838  70.0009 167.1582 0003469 270.9342  89.1448 15.52540822  4707"
      },
      "geometry": {
        "type": "Point",
        "coordinates": [
          -38.53449174003082,
          48.97693722049788
        ]
      }
    },
    {
      "type": "Feature",
      "properties": {
        "norad_id": 66839,
        "name": "STARLINK-35717",
        "group": "last-30-days",
        "lat": 50.57583887424131,
        "lon": -40.08052695209148,
        "alt_km": 405.8946283094165,
        "timestamp": "2025-12-24T11:32:58.719486+00:00",
        "meta_object_name": "STARLINK-35717",
        "meta_object_id": "2025-280U",
        "meta_epoch": "2025-12-24T03:16:59.220192",
        "meta_mean_motion": 15.52542001,
        "meta_eccentricity": 0.0003341,
        "meta_inclination": 70.0008,
        "meta_ra_of_asc_node": 167.1594,
        "meta_arg_of_pericenter": 275.8209,
        "meta_mean_anomaly": 84.2596,
        "meta_ephemeris_type": 0,
        "meta_classification_type": "U",
        "meta_norad_cat_id": 66839,
        "meta_element_set_no": 999,
        "meta_rev_at_epoch": 470,
        "meta_bstar": 0.0013471,
        "meta_mean_motion_dot": 0.00083653,
        "meta_mean_motion_ddot": 0,
        "tle_line1": "1 66839U 25280U   25358.13679653  .00083653  00000+0  13471-2 0  9994",
        "tle_line2": "2 66839  70.0008 167.1594 0003341 275.8209  84.2596 15.52542001  4706"
      },
      "geometry": {
        "type": "Point",
        "coordinates": [
          -40.08052695209148,
          50.57583887424131
        ]
      }
    },
    {
      "type": "Feature",
      "properties": {
        "norad_id": 66840,
        "name": "STARLINK-35837",
        "group": "last-30-days",
        "lat": 47.2431047270929,
        "lon": -36.986008582846054,
        "alt_km": 406.08557529079735,
        "timestamp": "2025-12-24T11:32:58.719496+00:00",
        "meta_object_name": "STARLINK-35837",
        "meta_object_id": "2025-280V",
        "meta_epoch": "2025-12-24T01:43:11.769600",
        "meta_mean_motion": 15.52518724,
        "meta_eccentricity": 0.0003409,
        "meta_inclination": 70.0006,
        "meta_ra_of_asc_node": 167.3337,
        "meta_arg_of_pericenter": 265.0447,
        "meta_mean_anomaly": 95.0351,
        "meta_ephemeris_type": 0,
        "meta_classification_type": "U",
        "meta_norad_cat_id": 66840,
        "meta_element_set_no": 999,
        "meta_rev_at_epoch": 469,
        "meta_bstar": 0.0013612,
        "meta_mean_motion_dot": 0.00084471,
        "meta_mean_motion_ddot": 0,
        "tle_line1": "1 66840U 25280V   25358.07166400  .00084471  00000+0  13612-2 0  9996",
        "tle_line2": "2 66840  70.0006 167.3337 0003409 265.0447  95.0351 15.52518724  4695"
      },
      "geometry": {
        "type": "Point",
        "coordinates": [
          -36.986008582846054,
          47.2431047270929
        ]
      }
    },
    {
      "type": "Feature",
      "properties": {
        "norad_id": 66841,
        "name": "STARLINK-35715",
        "group": "last-30-days",
        "lat": 45.64520001817213,
        "lon": -35.66033186094495,
        "alt_km": 406.3976270660196,
        "timestamp": "2025-12-24T11:32:58.719506+00:00",
        "meta_object_name": "STARLINK-35715",
        "meta_object_id": "2025-280W",
        "meta_epoch": "2025-12-24T01:42:44.055072",
        "meta_mean_motion": 15.5256583,
        "meta_eccentricity": 0.0003115,
        "meta_inclination": 70.0007,
        "meta_ra_of_asc_node": 167.3327,
        "meta_arg_of_pericenter": 276.7194,
        "meta_mean_anomaly": 83.3638,
        "meta_ephemeris_type": 0,
        "meta_classification_type": "U",
        "meta_norad_cat_id": 66841,
        "meta_element_set_no": 999,
        "meta_rev_at_epoch": 469,
        "meta_bstar": 0.00044564,
        "meta_mean_motion_dot": 0.00027389,
        "meta_mean_motion_ddot": 0,
        "tle_line1": "1 66841U 25280W   25358.07134323  .00027389  00000+0  44564-3 0  9992",
        "tle_line2": "2 66841  70.0007 167.3327 0003115 276.7194  83.3638 15.52565830  4696"
      },
      "geometry": {
        "type": "Point",
        "coordinates": [
          -35.66033186094495,
          45.64520001817213
        ]
      }
    }
  ]
}